[{"OBJECT_NAME":"KUIPER-00177","OBJECT_ID":"2026-030C","EPOCH":"2026-03-08T21:41:16.108224","MEAN_MOTION":15.36539003,"ECCENTRICITY":0.00013703,"INCLINATION":51.8832,"RA_OF_ASC_NODE":222.8101,"ARG_OF_PERICENTER":18.1523,"MEAN_ANOMALY":341.9513,"EPHEMERIS_TYPE":0,"CLASSIFICATION_TYPE":"U","NORAD_CAT_ID":67766,"ELEMENT_SET_NO":999,"REV_AT_EPOCH":497,"BSTAR":0.00090588368,"MEAN_MOTION_DOT":0.00032562,"MEAN_MOTION_DDOT":0},{"OBJECT_NAME":"KUIPER-00178","OBJECT_ID":"2026-030D","EPOCH":"2026-03-08T22:04:34.983840","MEAN_MOTION":15.35536335,"ECCENTRICITY":0.00064275,"INCLINATION":51.8828,"RA_OF_ASC_NODE":222.9147,"ARG_OF_PERICENTER":44.3739,"MEAN_ANOMALY":315.7761,"EPHEMERIS_TYPE":0,"CLASSIFICATION_TYPE":"U","NORAD_CAT_ID":67767,"ELEMENT_SET_NO":999,"REV_AT_EPOCH":497,"BSTAR":0.00087174271,"MEAN_MOTION_DOT":0.00030326,"MEAN_MOTION_DDOT":0},{"OBJECT_NAME":"KUIPER-00180","OBJECT_ID":"2026-030E","EPOCH":"2026-03-08T19:52:20.690400","MEAN_MOTION":15.31695672,"ECCENTRICITY":0.00147091,"INCLINATION":51.8824,"RA_OF_ASC_NODE":223.7799,"ARG_OF_PERICENTER":66.0882,"MEAN_ANOMALY":294.1642,"EPHEMERIS_TYPE":0,"CLASSIFICATION_TYPE":"U","NORAD_CAT_ID":67768,"ELEMENT_SET_NO":999,"REV_AT_EPOCH":495,"BSTAR":0.00071278416,"MEAN_MOTION_DOT":0.00021899,"MEAN_MOTION_DDOT":0},{"OBJECT_NAME":"KUIPER-00197","OBJECT_ID":"2026-030F","EPOCH":"2026-03-08T21:44:50.776800","MEAN_MOTION":15.363451,"ECCENTRICITY":0.00012723,"INCLINATION":51.8833,"RA_OF_ASC_NODE":222.8251,"ARG_OF_PERICENTER":66.3813,"MEAN_ANOMALY":293.7307,"EPHEMERIS_TYPE":0,"CLASSIFICATION_TYPE":"U","NORAD_CAT_ID":67769,"ELEMENT_SET_NO":999,"REV_AT_EPOCH":497,"BSTAR":0.0012937129,"MEAN_MOTION_DOT":0.00046462,"MEAN_MOTION_DDOT":0},{"OBJECT_NAME":"KUIPER-00198","OBJECT_ID":"2026-030G","EPOCH":"2026-03-08T21:52:58.027872","MEAN_MOTION":15.36046297,"ECCENTRICITY":0.00033801,"INCLINATION":51.8807,"RA_OF_ASC_NODE":222.8572,"ARG_OF_PERICENTER":43.5847,"MEAN_ANOMALY":316.5406,"EPHEMERIS_TYPE":0,"CLASSIFICATION_TYPE":"U","NORAD_CAT_ID":67770,"ELEMENT_SET_NO":999,"REV_AT_EPOCH":497,"BSTAR":0.00089315876,"MEAN_MOTION_DOT":0.00031589,"MEAN_MOTION_DDOT":0},{"OBJECT_NAME":"KUIPER-00199","OBJECT_ID":"2026-030H","EPOCH":"2026-03-08T20:56:04.164288","MEAN_MOTION":15.34365504,"ECCENTRICITY":0.00108112,"INCLINATION":51.8815,"RA_OF_ASC_NODE":223.3332,"ARG_OF_PERICENTER":58.32,"MEAN_ANOMALY":301.8839,"EPHEMERIS_TYPE":0,"CLASSIFICATION_TYPE":"U","NORAD_CAT_ID":67771,"ELEMENT_SET_NO":999,"REV_AT_EPOCH":496,"BSTAR":0.001168983,"MEAN_MOTION_DOT":0.00039385,"MEAN_MOTION_DDOT":0},{"OBJECT_NAME":"KUIPER-00200","OBJECT_ID":"2026-030J","EPOCH":"2026-03-08T21:30:38.383776","MEAN_MOTION":15.37082715,"ECCENTRICITY":0.00010012,"INCLINATION":51.8816,"RA_OF_ASC_NODE":222.7579,"ARG_OF_PERICENTER":254.9733,"MEAN_ANOMALY":105.1143,"EPHEMERIS_TYPE":0,"CLASSIFICATION_TYPE":"U","NORAD_CAT_ID":67772,"ELEMENT_SET_NO":999,"REV_AT_EPOCH":497,"BSTAR":0.0011362486,"MEAN_MOTION_DOT":0.00041721,"MEAN_MOTION_DDOT":0},{"OBJECT_NAME":"KUIPER-00203","OBJECT_ID":"2026-030K","EPOCH":"2026-03-08T22:00:01.999584","MEAN_MOTION":15.15012741,"ECCENTRICITY":0.00110657,"INCLINATION":51.8858,"RA_OF_ASC_NODE":223.7272,"ARG_OF_PERICENTER":60.4955,"MEAN_ANOMALY":210.6668,"EPHEMERIS_TYPE":0,"CLASSIFICATION_TYPE":"U","NORAD_CAT_ID":67773,"ELEMENT_SET_NO":999,"REV_AT_EPOCH":353,"BSTAR":-0.10257655,"MEAN_MOTION_DOT":-0.01775423,"MEAN_MOTION_DDOT":0},{"OBJECT_NAME":"KUIPER-00205","OBJECT_ID":"2026-030L","EPOCH":"2026-03-08T21:45:53.598240","MEAN_MOTION":15.36403196,"ECCENTRICITY":0.0003101,"INCLINATION":51.8809,"RA_OF_ASC_NODE":222.8255,"ARG_OF_PERICENTER":19.481,"MEAN_ANOMALY":340.6294,"EPHEMERIS_TYPE":0,"CLASSIFICATION_TYPE":"U","NORAD_CAT_ID":67774,"ELEMENT_SET_NO":999,"REV_AT_EPOCH":497,"BSTAR":0.0011857119,"MEAN_MOTION_DOT":0.00042613,"MEAN_MOTION_DDOT":0},{"OBJECT_NAME":"KUIPER-00208","OBJECT_ID":"2026-030M","EPOCH":"2026-03-08T21:21:04.205664","MEAN_MOTION":15.32262901,"ECCENTRICITY":0.00152699,"INCLINATION":51.885,"RA_OF_ASC_NODE":223.4536,"ARG_OF_PERICENTER":56.6053,"MEAN_ANOMALY":303.639,"EPHEMERIS_TYPE":0,"CLASSIFICATION_TYPE":"U","NORAD_CAT_ID":67775,"ELEMENT_SET_NO":999,"REV_AT_EPOCH":496,"BSTAR":-6.379622e-6,"MEAN_MOTION_DOT":-5.82e-6,"MEAN_MOTION_DDOT":0},{"OBJECT_NAME":"KUIPER-00209","OBJECT_ID":"2026-030N","EPOCH":"2026-03-08T21:35:11.695488","MEAN_MOTION":15.30268164,"ECCENTRICITY":0.00130665,"INCLINATION":51.8835,"RA_OF_ASC_NODE":223.5128,"ARG_OF_PERICENTER":63.783,"MEAN_ANOMALY":296.4495,"EPHEMERIS_TYPE":0,"CLASSIFICATION_TYPE":"U","NORAD_CAT_ID":67776,"ELEMENT_SET_NO":999,"REV_AT_EPOCH":496,"BSTAR":0.00058641217,"MEAN_MOTION_DOT":0.00017137,"MEAN_MOTION_DDOT":0},{"OBJECT_NAME":"KUIPER-00213","OBJECT_ID":"2026-030P","EPOCH":"2026-03-08T22:54:50.851872","MEAN_MOTION":15.32652928,"ECCENTRICITY":0.00151647,"INCLINATION":51.8818,"RA_OF_ASC_NODE":223.1289,"ARG_OF_PERICENTER":61.7897,"MEAN_ANOMALY":298.4617,"EPHEMERIS_TYPE":0,"CLASSIFICATION_TYPE":"U","NORAD_CAT_ID":67777,"ELEMENT_SET_NO":999,"REV_AT_EPOCH":497,"BSTAR":-2.8594798e-5,"MEAN_MOTION_DOT":-1.299e-5,"MEAN_MOTION_DDOT":0},{"OBJECT_NAME":"KUIPER-00214","OBJECT_ID":"2026-030Q","EPOCH":"2026-03-08T21:35:32.394336","MEAN_MOTION":15.36755215,"ECCENTRICITY":2.206e-5,"INCLINATION":51.8849,"RA_OF_ASC_NODE":222.7863,"ARG_OF_PERICENTER":280.1466,"MEAN_ANOMALY":79.9496,"EPHEMERIS_TYPE":0,"CLASSIFICATION_TYPE":"U","NORAD_CAT_ID":67778,"ELEMENT_SET_NO":999,"REV_AT_EPOCH":497,"BSTAR":0.0014648318,"MEAN_MOTION_DOT":0.00053412,"MEAN_MOTION_DDOT":0},{"OBJECT_NAME":"KUIPER-00215","OBJECT_ID":"2026-030R","EPOCH":"2026-03-08T22:27:13.553856","MEAN_MOTION":15.34461393,"ECCENTRICITY":0.00105099,"INCLINATION":51.8844,"RA_OF_ASC_NODE":223.0191,"ARG_OF_PERICENTER":57.3102,"MEAN_ANOMALY":302.8896,"EPHEMERIS_TYPE":0,"CLASSIFICATION_TYPE":"U","NORAD_CAT_ID":67779,"ELEMENT_SET_NO":999,"REV_AT_EPOCH":497,"BSTAR":0.0009632546,"MEAN_MOTION_DOT":0.00032452,"MEAN_MOTION_DDOT":0},{"OBJECT_NAME":"KUIPER-00218","OBJECT_ID":"2026-030S","EPOCH":"2026-03-08T22:11:04.553664","MEAN_MOTION":15.35172007,"ECCENTRICITY":0.00069226,"INCLINATION":51.883,"RA_OF_ASC_NODE":222.9437,"ARG_OF_PERICENTER":48.7732,"MEAN_ANOMALY":311.385,"EPHEMERIS_TYPE":0,"CLASSIFICATION_TYPE":"U","NORAD_CAT_ID":67780,"ELEMENT_SET_NO":999,"REV_AT_EPOCH":497,"BSTAR":0.00083316814,"MEAN_MOTION_DOT":0.00028624,"MEAN_MOTION_DDOT":0},{"OBJECT_NAME":"KUIPER-00220","OBJECT_ID":"2026-030T","EPOCH":"2026-03-08T22:21:15.031872","MEAN_MOTION":15.34767562,"ECCENTRICITY":0.00087455,"INCLINATION":51.8812,"RA_OF_ASC_NODE":222.9825,"ARG_OF_PERICENTER":53.4359,"MEAN_ANOMALY":306.743,"EPHEMERIS_TYPE":0,"CLASSIFICATION_TYPE":"U","NORAD_CAT_ID":67781,"ELEMENT_SET_NO":999,"REV_AT_EPOCH":497,"BSTAR":0.0011959737,"MEAN_MOTION_DOT":0.00040808,"MEAN_MOTION_DDOT":0},{"OBJECT_NAME":"KUIPER-00222","OBJECT_ID":"2026-030U","EPOCH":"2026-03-08T21:26:57.788160","MEAN_MOTION":15.32383142,"ECCENTRICITY":0.00173035,"INCLINATION":51.8818,"RA_OF_ASC_NODE":223.4681,"ARG_OF_PERICENTER":62.4774,"MEAN_ANOMALY":297.7967,"EPHEMERIS_TYPE":0,"CLASSIFICATION_TYPE":"U","NORAD_CAT_ID":67782,"ELEMENT_SET_NO":999,"REV_AT_EPOCH":496,"BSTAR":0.0011563783,"MEAN_MOTION_DOT":0.00036664,"MEAN_MOTION_DDOT":0},{"OBJECT_NAME":"KUIPER-00223","OBJECT_ID":"2026-030V","EPOCH":"2026-03-08T20:59:18.076992","MEAN_MOTION":15.34109281,"ECCENTRICITY":0.00128645,"INCLINATION":51.8836,"RA_OF_ASC_NODE":223.3533,"ARG_OF_PERICENTER":57.5569,"MEAN_ANOMALY":302.6659,"EPHEMERIS_TYPE":0,"CLASSIFICATION_TYPE":"U","NORAD_CAT_ID":67783,"ELEMENT_SET_NO":999,"REV_AT_EPOCH":496,"BSTAR":0.0010486789,"MEAN_MOTION_DOT":0.00035009,"MEAN_MOTION_DDOT":0},{"OBJECT_NAME":"KUIPER-00225","OBJECT_ID":"2026-030W","EPOCH":"2026-03-08T21:55:47.952480","MEAN_MOTION":15.3589911,"ECCENTRICITY":0.00044149,"INCLINATION":51.8807,"RA_OF_ASC_NODE":222.8694,"ARG_OF_PERICENTER":37.3266,"MEAN_ANOMALY":322.8026,"EPHEMERIS_TYPE":0,"CLASSIFICATION_TYPE":"U","NORAD_CAT_ID":67784,"ELEMENT_SET_NO":999,"REV_AT_EPOCH":497,"BSTAR":0.00084752425,"MEAN_MOTION_DOT":0.00029809,"MEAN_MOTION_DDOT":0},{"OBJECT_NAME":"KUIPER-00226","OBJECT_ID":"2026-030X","EPOCH":"2026-03-08T21:47:40.187328","MEAN_MOTION":15.3069882,"ECCENTRICITY":0.0019547,"INCLINATION":51.8814,"RA_OF_ASC_NODE":223.5624,"ARG_OF_PERICENTER":70.7814,"MEAN_ANOMALY":289.5283,"EPHEMERIS_TYPE":0,"CLASSIFICATION_TYPE":"U","NORAD_CAT_ID":67785,"ELEMENT_SET_NO":999,"REV_AT_EPOCH":496,"BSTAR":-0.00039885482,"MEAN_MOTION_DOT":-0.00012436,"MEAN_MOTION_DDOT":0},{"OBJECT_NAME":"KUIPER-00259","OBJECT_ID":"2026-030Y","EPOCH":"2026-03-08T22:14:20.654880","MEAN_MOTION":15.35071397,"ECCENTRICITY":0.00085727,"INCLINATION":51.8808,"RA_OF_ASC_NODE":222.9512,"ARG_OF_PERICENTER":48.1104,"MEAN_ANOMALY":312.0612,"EPHEMERIS_TYPE":0,"CLASSIFICATION_TYPE":"U","NORAD_CAT_ID":67786,"ELEMENT_SET_NO":999,"REV_AT_EPOCH":497,"BSTAR":0.00087448544,"MEAN_MOTION_DOT":0.00029982,"MEAN_MOTION_DDOT":0},{"OBJECT_NAME":"KUIPER-00260","OBJECT_ID":"2026-030Z","EPOCH":"2026-03-08T21:42:52.835616","MEAN_MOTION":15.36487037,"ECCENTRICITY":0.00012285,"INCLINATION":51.8799,"RA_OF_ASC_NODE":222.8096,"ARG_OF_PERICENTER":50.4577,"MEAN_ANOMALY":309.6518,"EPHEMERIS_TYPE":0,"CLASSIFICATION_TYPE":"U","NORAD_CAT_ID":67787,"ELEMENT_SET_NO":999,"REV_AT_EPOCH":488,"BSTAR":0.001310863,"MEAN_MOTION_DOT":0.00047305,"MEAN_MOTION_DDOT":0},{"OBJECT_NAME":"KUIPER-00262","OBJECT_ID":"2026-030AA","EPOCH":"2026-03-08T21:37:03.739872","MEAN_MOTION":15.3667281,"ECCENTRICITY":4.002e-5,"INCLINATION":51.8815,"RA_OF_ASC_NODE":222.7868,"ARG_OF_PERICENTER":73.9302,"MEAN_ANOMALY":286.1729,"EPHEMERIS_TYPE":0,"CLASSIFICATION_TYPE":"U","NORAD_CAT_ID":67788,"ELEMENT_SET_NO":999,"REV_AT_EPOCH":497,"BSTAR":0.0011451951,"MEAN_MOTION_DOT":0.00041495,"MEAN_MOTION_DDOT":0}]
